22P/Kopff,e,4.7418,120.7549,163.0019,3.440110,0.1544705,0.54946141,59.4441,04/07.0/2023,2000,g  3.0,10.4
# From MPC 14747
23P/Brorsen-Metcalf,e,19.2522,311.9626,129.2235,16.94271,0.0141329,0.97216611,0.0000,08/11.6378/1989,2000,g 10.0,6.0
# From MPC110085
24P/Schaumasse,e,11.5036,78.3248,58.4510,4.055268,0.1206910,0.70774077,238.3671,04/07.0/2023,2000,g  6.5,14.0
# From MPEC 2022-Y15
26P/Grigg-Skjellerup,e,22.4330,211.5411,2.1492,3.015418,0.1882274,0.64052464,310.6168,04/07.0/2023,2000,g 12.0,16.0
# From MPC 78188
27P/Crommelin,e,29.3691,250.6734,195.8547,9.180597,0.0354322,0.91907564,151.4285,04/07.0/2023,2000,g 12.0,8.0
# From MPEC 2023-FK0
28P/Neujmin,e,14.3103,346.3443,347.4671,6.981670,0.0534275,0.77356715,40.4039,04/07.0/2023,2000,g  8.5,6.0
# From MPEC 2023-G31
29P/Schwassmann-Wachmann,e,9.3630,312.3990,51.1996,6.048557,0.0662562,0.04464740,95.7032,04/07.0/2023,2000,g  4.0,4.0
# From MPEC 2023-CD7
30P/Reinmuth,e,8.0578,117.4730,9.4539,3.733388,0.1366310,0.51586398,291.9549,04/07.0/2023,2000,g  9.5,6.0
# From MPEC 2021-F20
31P/Schwassmann-Wachmann,e,4.5485,114.1048,17.8814,4.235070,0.1130871,0.19241623,155.3396,04/07.0/2023,2000,g 13.1,4.0
# From MPEC 2022-K19
32P/ComasSola,e,9.9122,54.5631,54.7479,4.558379,0.1012718,0.55659031,321.5792,04/07.0/2023,2000,g  6.5,8.0
# From MPEC 2013-O31
33P/Daniel,e,22.2939,66.2968,20.4580,4.088466,0.1192239,0.45184433,290.3022,04/07.0/2023,2000,g 10.0,12.0
# From  15, 452
35P/Herschel-Rigollet,e,65.205,356.689,28.994,28.5450,0.006463,0.9744140,0.000,02/17.0586/2092,2000,g  9.0,4.0
# From MPEC 2022-ED3
36P/Whipple,e,9.9527,181.8412,201.0612,4.137533,0.1171094,0.26904786,121.6747,04/07.0/2023,2000,g  8.5,6.0
# From MPEC 2021-F20
37P/Forbes,e,8.9506,314.5660,330.0958,3.461981,0.1530090,0.53301523,275.3487,04/07.0/2023,2000,g 13.8,4.0
# From MPEC 2018-S50
38P/Stephan-Oterma,e,18.3941,77.8957,359.5095,11.23980,0.0261557,0.85950477,42.0309,04/07.0/2023,2000,g  3.5,12.0
# From MPEC 2022-A21
39P/Oterma,e,1.5439,296.7805,101.7542,7.257217,0.0504137,0.21349747,355.5069,04/07.0/2023,2000,g  7.0,6.0
# From MPC100283
40P/Vaisala,e,11.4616,133.6253,47.4993,4.955902,0.0893347,0.63114976,274.9088,04/07.0/2023,2000,g  5.5,12.0
# From MPC105240
41P/Tuttle-Giacobini-Kresak,e,9.2205,140.9883,62.2107,3.087914,0.1816378,0.65989900,37.3441,04/07.0/2023,2000,g 10.0,16.0
# From MPC 94283
42P/Neujmin,e,3.9908,150.1757,147.2208,4.874285,0.0915878,0.58451739,267.1577,04/07.0/2023,2000,g 13.0,6.0
# From MPEC 2022-C56
43P/Wolf-Harrington,e,9.3314,244.0222,224.0696,4.320834,0.1097369,0.43526177,266.4961,04/07.0/2023,2000,g  8.0,6.0
# From MPEC 2023-F81
44P/Reinmuth,e,5.8969,286.4280,58.0353,3.688614,0.1391263,0.42737889,48.5541,04/07.0/2023,2000,g  8.3,6.0
# From MPEC 2022-O01
45P/Honda-Mrkos-Pajdusakova,e,4.3231,87.6890,327.9251,3.055848,0.1845043,0.81767955,63.6575,04/07.0/2023,2000,g 13.5,8.0
# From MPEC 2021-O56
46P/Wirtanen,e,11.7496,82.1625,356.3287,3.091624,0.1813109,0.65875256,285.9324,04/07.0/2023,2000,g 14.0,6.0
# From MPEC 2021-F20
47P/Ashbrook-Jackson,e,13.0398,356.9172,357.7659,4.121663,0.1177864,0.31870100,249.9530,04/07.0/2023,2000,g 12.2,4.0
# From MPEC 2023-FK0
48P/Johnson,e,12.2004,110.0887,216.7463,3.501080,0.1504530,0.42710160,255.3692,04/07.0/2023,2000,g 10.0,6.0
# From MPEC 2021-F20
49P/Arend-Rigaux,e,19.0535,118.7914,332.9221,3.569331,0.1461584,0.59863707,252.6008,04/07.0/2023,2000,g 13.4,4.0
# From MPEC 2015-S97
50P/Arend,e,19.1011,355.1732,49.3556,4.087349,0.1192728,0.52964480,312.0701,04/07.0/2023,2000,g  9.5,6.0
# From MPEC 2022-UE6
51P/Harrington,e,5.4265,83.6615,269.2527,3.706925,0.1380967,0.54341986,25.9249,04/07.0/2023,2000,g 10.0,8.0
# From NK 3014
51P-A/Harrington,e,5.4264,83.6616,269.2241,3.708591,0.1380037,0.54365693,25.5540,04/07.0/2023,2000,g 10.0,8.0
# From MPEC 2022-X67
51P-D/Harrington,e,5.4269,83.6500,269.2709,3.707289,0.1380764,0.54355022,25.8626,04/07.0/2023,2000,g 16.0,8.0
# From MPEC 2022-L66
52P/Harrington-Abell,e,10.2310,336.8247,139.5593,3.863675,0.1297786,0.54032564,71.2213,04/07.0/2023,2000,g 13.5,6.0
# From MPC100283
53P/Van Biesbroeck,e,6.6079,148.8242,134.4895,5.432744,0.0778351,0.55040709,197.2944,04/07.0/2023,2000,g  7.7,4.8
# From MPC 89011
54P/de Vico-Swift-NEAT,e,6.0641,358.8106,1.9009,3.788144,0.1336794,0.42645636,291.0543,04/07.0/2023,2000,g  9.0,4.0
# From MPC 31070
55P/Tempel-Tuttle,e,162.5065,235.4206,172.4743,10.35572,0.0295756,0.90529493,272.2559,04/07.0/2023,2000,g  9.0,4.0
# From MPC101100
56P/Slaughter-Burnham,e,8.1591,345.9764,44.0542,5.065770,0.0864442,0.50853332,211.6631,04/07.0/2023,2000,g  8.5,6.0
# From MPEC 2023-CD7
57P/duToit-Neujmin-Delporte,e,2.8524,188.7772,115.1390,3.443586,0.1542367,0.50083476,82.8004,04/07.0/2023,2000,g 12.5,6.0
# From MPEC 2021-O56
58P/Jackson-Neujmin,e,13.1053,159.0744,200.5463,4.088517,0.1192217,0.66267296,124.4905,04/07.0/2023,2000,g 15.5,6.0
# From MPEC 2023-A50
59P/Kearns-Kwee,e,9.3449,312.7851,127.5273,4.482962,0.1038380,0.47623519,172.6018,04/07.0/2023,2000,g  7.0,6.0
# From MPEC 2021-F20
60P/Tsuchinshan,e,3.5802,267.4401,216.9831,3.526185,0.1488492,0.53359606,235.5628,04/07.0/2023,2000,g 11.5,6.0
# From MPEC 2023-FK0
61P/Shajn-Schaldach,e,5.9995,162.9615,221.6406,3.689069,0.1391006,0.42376315,22.9872,04/07.0/2023,2000,g  6.0,10.0
# From MPC109147
62P/Tsuchinshan,e,4.7364,68.6756,47.3150,3.370175,0.1593035,0.62487787,318.2578,04/07.0/2023,2000,g  8.0,10.0
# From MPC 84320
63P/Wild,e,19.7167,358.0078,168.9527,5.615594,0.0740646,0.64994516,271.9750,04/07.0/2023,2000,g 10.5,6.0
# From MPEC 2023-A50
64P/Swift-Gehrels,e,8.9491,299.8962,97.1752,4.452554,0.1049036,0.68869361,169.2371,04/07.0/2023,2000,g  9.5,12.0
# From MPEC 2023-G31
65P/Gunn,e,9.1758,61.9839,213.8592,3.889358,0.1284953,0.24836913,256.9344,04/07.0/2023,2000,g  5.0,6.0
# From MPEC 2021-F20
66P/duToit,e,18.6387,21.7782,257.4872,6.070522,0.0658969,0.78573590,117.6519,04/07.0/2023,2000,g 15.0,4.0
# From MPEC 2023-FK0
67P/Churyumov-Gerasimenko,e,3.8719,36.3291,22.1531,3.457433,0.1533110,0.64990255,79.8501,04/07.0/2023,2000,g 11.0,4.0
# From MPEC 2022-H04
68P/Klemola,e,11.1110,175.0487,153.2533,4.959574,0.0892355,0.63708427,111.1081,04/07.0/2023,2000,g 12.7,4.0
# From MPEC 2023-A50
69P/Taylor,e,22.0482,104.8052,343.3971,3.884092,0.1287567,0.41396792,190.5892,04/07.0/2023,2000,g  9.5,12.0
# From MPEC 2023-G31
70P/Kojima,e,6.5982,119.2538,1.7930,3.677365,0.1397651,0.45397434,72.6655,04/07.0/2023,2000,g 11.0,6.0
# From MPEC 2023-F81
71P/Clark,e,9.4381,59.3934,209.0584,3.138192,0.1772902,0.49371751,13.1587,04/07.0/2023,2000,g  9.8,6.0
# From MPC 89011
72P/Denning-Fujikawa,e,10.9487,26.7013,346.7341,4.306935,0.1102685,0.81865599,352.2942,04/07.0/2023,2000,g 17.5,10.0
# From MPEC 2023-G31
73P/Schwassmann-Wachmann,e,11.2314,69.5883,199.5107,3.093707,0.1811279,0.68559088,40.6039,04/07.0/2023,2000,g 11.5,6.0
# From MPC106348
73P-T/Schwassmann-Wachmann,e,11.2333,69.5911,199.4913,3.095185,0.1809982,0.68578476,40.3187,04/07.0/2023,2000,g 11.5,6.0
# From MPEC 2022-P18
73P-U/Schwassmann-Wachmann,e,11.0729,70.6565,199.8917,2.877136,0.2019591,0.66630888,45.4582,04/07.0/2023,2000,g 19.0,4.0
# From MPEC 2022-X67
73P-V/Schwassmann-Wachmann,e,11.2473,69.4666,199.3874,3.147125,0.1765360,0.69050445,39.7164,04/07.0/2023,2000,g 19.0,4.0
# From MPEC 2022-R15
73P-W/Schwassmann-Wachmann,e,11.6065,67.2878,198.7690,4.596500,0.1000146,0.78236590,22.4529,04/07.0/2023,2000,g 18.2,4.0
# From MPEC 2023-A50
73P-X/Schwassmann-Wachmann,e,11.2630,69.4598,199.4056,3.126378,0.1782961,0.68845371,40.0529,04/07.0/2023,2000,g 17.5,4.0
# From MPEC 2022-R15
73P-Y/Schwassmann-Wachmann,e,11.2017,69.7459,199.4835,3.035481,0.1863643,0.68019649,42.0582,04/07.0/2023,2000,g 17.4,4.0
# From MPEC 2022-P18
73P-BU/Schwassmann-Wachmann,e,11.0729,70.6565,199.8917,2.877136,0.2019591,0.66630888,45.4582,04/07.0/2023,2000,g 19.0,4.0
# From MPEC 2022-X67
73P-BV/Schwassmann-Wachmann,e,11.2473,69.4666,199.3874,3.147125,0.1765360,0.69050445,39.7164,04/07.0/2023,2000,g 19.0,4.0
# From MPEC 2022-R15
73P-BW/Schwassmann-Wachmann,e,11.6065,67.2878,198.7690,4.596500,0.1000146,0.78236590,22.4529,04/07.0/2023,2000,g 18.2,4.0
# From MPEC 2023-A50
73P-BX/Schwassmann-Wachmann,e,11.2630,69.4598,199.4056,3.126378,0.1782961,0.68845371,40.0529,04/07.0/2023,2000,g 17.5,4.0
# From MPEC 2022-R15
73P-BY/Schwassmann-Wachmann,e,11.2017,69.7459,199.4835,3.035481,0.1863643,0.68019649,42.0582,04/07.0/2023,2000,g 17.4,4.0
# From MPEC 2023-A50
74P/Smirnova-Chernykh,e,6.4002,54.2467,139.8898,4.670718,0.0976402,0.07461001,178.5091,04/07.0/2023,2000,g  5.0,6.0
# From MPEC 2022-K19
76P/West-Kohoutek-Ikemura,e,30.4855,84.1045,359.9359,3.470346,0.1524562,0.53883247,191.8599,04/07.0/2023,2000,g  8.0,12.0
# From MPEC 2023-G31
77P/Longmore,e,24.3188,14.7680,196.7305,3.623914,0.1428687,0.35186992,0.5545,04/07.0/2023,2000,g  7.0,8.0
# From MPEC 2021-O56
78P/Gehrels,e,6.2573,210.5191,192.6532,3.736746,0.1364469,0.46297186,199.7008,04/07.0/2023,2000,g  5.5,8.0
# From MPC 94675
79P/du Toit-Hartley,e,3.1487,280.5196,281.7877,2.943775,0.1951404,0.61917469,325.5843,04/07.0/2023,2000,g 16.0,4.0
# From MPEC 2023-G31
80P/Peters-Hartley,e,29.9235,259.7964,339.2397,4.023002,0.1221458,0.59847268,14.5550,04/07.0/2023,2000,g  9.0,8.0
# From MPEC 2023-G31
81P/Wild,e,3.2364,136.0983,41.6231,3.454439,0.1535104,0.53728653,17.2529,04/07.0/2023,2000,g  7.0,6.0
# From MPC133426
82P/Gehrels,e,1.1292,239.3234,226.3465,4.133044,0.1173003,0.12211418,205.1845,04/07.0/2023,2000,g 15.0,4.0
# From MPEC 2020-FB5
84P/Giclas,e,7.5502,108.1313,281.6486,3.549952,0.1473568,0.51608546,152.7456,04/07.0/2023,2000,g  9.5,8.0
# From MPEC 2022-YB4
86P/Wild,e,15.4746,72.3116,179.6200,3.605591,0.1439592,0.37248118,60.8846,04/07.0/2023,2000,g 11.0,6.0
# From MPEC 2020-SI8
87P/Bus,e,4.7768,184.6642,43.1353,3.874940,0.1292131,0.35044437,125.8831,04/07.0/2023,2000,g  7.2,10.0
# From MPEC 2022-ED3
88P/Howell,e,4.3820,56.6689,235.9382,3.106356,0.1800227,0.56357011,166.1443,04/07.0/2023,2000,g 11.0,6.0
# From MPEC 2023-G31
